GLOBALSTAR M024         
1 25883U 99043A   25356.31095225 -.00000092  00000+0 -96556-3 0  9995
2 25883  52.0042 316.1487 0001888  38.9865 109.7548 11.10165910135755
GLOBALSTAR M027         
1 25884U 99043B   25356.85229181 -.00000048  00000+0  59345-3 0  9990
2 25884  52.0236  38.2537 0021021 295.3345  64.5271 11.04372723162084
GLOBALSTAR M054         
1 25885U 99043C   25356.60212862 -.00000084  00000+0 -31272-3 0  9992
2 25885  52.0116 134.4887 0005855 134.7601 309.9149 11.39224897140528
GLOBALSTAR M053         
1 25886U 99043D   25357.22295830 -.00000066  00000+0  75721-4 0  9995
2 25886  51.9986  90.5848 0003596  59.4253 318.0824 11.27668824140774
GLOBALSTAR M058         
1 25907U 99049A   25357.21081067 -.00000113  00000+0 -38877-3 0  9993
2 25907  51.9966 324.4287 0001719 285.7833  74.2812 11.93206084564109
GLOBALSTAR M050         
1 25908U 99049B   25357.21219424  .00000001  00000+0  10066-2 0  9997
2 25908  52.0011 317.9786 0009540  47.9357  54.3153 12.07461916171028
GLOBALSTAR M033         
1 25909U 99049C   25356.90520911 -.00000062  00000+0  28710-3 0  9993
2 25909  51.9875 177.6189 0013145 295.0628  64.8854 12.20294929558785
GLOBALSTAR M055         
1 25910U 99049D   25357.19844181 -.00000092  00000+0  20657-4 0  9991
2 25910  51.9986 178.3362 0007456 154.8884 205.2331 12.29438467191538
